[{"OBJECT_NAME":"ONEWEB-0392","OBJECT_ID":"2021-132D","EPOCH":"2026-03-09T21:47:28.416192","MEAN_MOTION":13.17649523,"ECCENTRICITY":0.0001764,"INCLINATION":87.9163,"RA_OF_ASC_NODE":25.5532,"ARG_OF_PERICENTER":69.0087,"MEAN_ANOMALY":291.1233,"EPHEMERIS_TYPE":0,"CLASSIFICATION_TYPE":"U","NORAD_CAT_ID":50472,"ELEMENT_SET_NO":999,"REV_AT_EPOCH":20504,"BSTAR":0.00039112641,"MEAN_MOTION_DOT":1.65e-6,"MEAN_MOTION_DDOT":0},{"OBJECT_NAME":"FENGYUN 1C DEB","OBJECT_ID":"1999-025DRA","EPOCH":"2026-03-08T02:19:35.330016","MEAN_MOTION":13.52479276,"ECCENTRICITY":0.02957908,"INCLINATION":99.9646,"RA_OF_ASC_NODE":125.1472,"ARG_OF_PERICENTER":336.8902,"MEAN_ANOMALY":50.9056,"EPHEMERIS_TYPE":0,"CLASSIFICATION_TYPE":"U","NORAD_CAT_ID":35242,"ELEMENT_SET_NO":999,"REV_AT_EPOCH":59281,"BSTAR":0.0012983114,"MEAN_MOTION_DOT":1.084e-5,"MEAN_MOTION_DDOT":0}]
